{
  "links" : {
    "next" : "https://api.nasa.gov/neo/rest/v1/feed?start_date=2011-04-23&end_date=2011-04-23&detailed=true&api_key=t0TVs3DtDT2H8Oy2Zy8m2eVrNsAVKAexjcZXUckd",
    "prev" : "https://api.nasa.gov/neo/rest/v1/feed?start_date=2011-04-21&end_date=2011-04-21&detailed=true&api_key=t0TVs3DtDT2H8Oy2Zy8m2eVrNsAVKAexjcZXUckd",
    "self" : "https://api.nasa.gov/neo/rest/v1/feed?start_date=2011-04-22&end_date=2011-04-22&detailed=true&api_key=t0TVs3DtDT2H8Oy2Zy8m2eVrNsAVKAexjcZXUckd"
  },
  "element_count" : 9,
  "near_earth_objects" : {
    "2011-04-22" : [ {
      "links" : {
        "self" : "https://api.nasa.gov/neo/rest/v1/neo/3552685?api_key=t0TVs3DtDT2H8Oy2Zy8m2eVrNsAVKAexjcZXUckd"
      },
      "neo_reference_id" : "3552685",
      "name" : "(2010 XJ)",
      "nasa_jpl_url" : "http://ssd.jpl.nasa.gov/sbdb.cgi?sstr=3552685",
      "absolute_magnitude_h" : 19.7,
      "estimated_diameter" : {
        "kilometers" : {
          "estimated_diameter_min" : 0.3051792326,
          "estimated_diameter_max" : 0.6824015094
        },
        "meters" : {
          "estimated_diameter_min" : 305.1792325939,
          "estimated_diameter_max" : 682.4015094011
        },
        "miles" : {
          "estimated_diameter_min" : 0.1896295249,
          "estimated_diameter_max" : 0.4240245083
        },
        "feet" : {
          "estimated_diameter_min" : 1001.2442334633,
          "estimated_diameter_max" : 2238.8501681036
        }
      },
      "is_potentially_hazardous_asteroid" : false,
      "close_approach_data" : [ {
        "close_approach_date" : "2011-04-22",
        "epoch_date_close_approach" : 1303455600000,
        "relative_velocity" : {
          "kilometers_per_second" : "19.8600753865",
          "kilometers_per_hour" : "71496.2713912729",
          "miles_per_hour" : "44425.0026319829"
        },
        "miss_distance" : {
          "astronomical" : "0.3084851727",
          "lunar" : "120.0007324219",
          "kilometers" : "46148728",
          "miles" : "28675490"
        },
        "orbiting_body" : "Earth"
      } ],
      "orbital_data" : {
        "orbit_id" : "18",
        "orbit_determination_date" : "2017-04-06 08:55:28",
        "orbit_uncertainty" : "4",
        "minimum_orbit_intersection" : ".153641",
        "jupiter_tisserand_invariant" : "3.250",
        "epoch_osculation" : "2458000.5",
        "eccentricity" : ".571696549419681",
        "semi_major_axis" : "2.353079299094698",
        "inclination" : "19.70304886729656",
        "ascending_node_longitude" : "35.13090927467617",
        "orbital_period" : "1318.418449239271",
        "perihelion_distance" : "1.007831983291378",
        "perihelion_argument" : "120.7047404349991",
        "aphelion_distance" : "3.698326614898019",
        "perihelion_time" : "2458275.000152629151",
        "mean_anomaly" : "285.046516905529",
        "mean_motion" : ".2730544313967393",
        "equinox" : "J2000"
      }
    }, {
      "links" : {
        "self" : "https://api.nasa.gov/neo/rest/v1/neo/3562546?api_key=t0TVs3DtDT2H8Oy2Zy8m2eVrNsAVKAexjcZXUckd"
      },
      "neo_reference_id" : "3562546",
      "name" : "(2011 GZ54)",
      "nasa_jpl_url" : "http://ssd.jpl.nasa.gov/sbdb.cgi?sstr=3562546",
      "absolute_magnitude_h" : 22.0,
      "estimated_diameter" : {
        "kilometers" : {
          "estimated_diameter_min" : 0.1058168859,
          "estimated_diameter_max" : 0.2366137501
        },
        "meters" : {
          "estimated_diameter_min" : 105.8168859331,
          "estimated_diameter_max" : 236.6137501138
        },
        "miles" : {
          "estimated_diameter_min" : 0.0657515442,
          "estimated_diameter_max" : 0.1470249225
        },
        "feet" : {
          "estimated_diameter_min" : 347.1682720448,
          "estimated_diameter_max" : 776.2918559233
        }
      },
      "is_potentially_hazardous_asteroid" : false,
      "close_approach_data" : [ {
        "close_approach_date" : "2011-04-22",
        "epoch_date_close_approach" : 1303455600000,
        "relative_velocity" : {
          "kilometers_per_second" : "5.1423039683",
          "kilometers_per_hour" : "18512.294286058",
          "miles_per_hour" : "11502.8197468009"
        },
        "miss_distance" : {
          "astronomical" : "0.1689101764",
          "lunar" : "65.7060546875",
          "kilometers" : "25268602",
          "miles" : "15701182"
        },
        "orbiting_body" : "Earth"
      } ],
      "orbital_data" : {
        "orbit_id" : "19",
        "orbit_determination_date" : "2017-04-06 08:53:47",
        "orbit_uncertainty" : "1",
        "minimum_orbit_intersection" : ".143739",
        "jupiter_tisserand_invariant" : "4.892",
        "epoch_osculation" : "2458000.5",
        "eccentricity" : ".1393071944400061",
        "semi_major_axis" : "1.332637014862337",
        "inclination" : "9.967423777093844",
        "ascending_node_longitude" : "213.6417711567356",
        "orbital_period" : "561.9093190196254",
        "perihelion_distance" : "1.14699109111496",
        "perihelion_argument" : "15.28987048783997",
        "aphelion_distance" : "1.518282938609714",
        "perihelion_time" : "2457946.335728880287",
        "mean_anomaly" : "34.70157362244364",
        "mean_motion" : ".640672770168858",
        "equinox" : "J2000"
      }
    }, {
      "links" : {
        "self" : "https://api.nasa.gov/neo/rest/v1/neo/3563339?api_key=t0TVs3DtDT2H8Oy2Zy8m2eVrNsAVKAexjcZXUckd"
      },
      "neo_reference_id" : "3563339",
      "name" : "(2011 GH62)",
      "nasa_jpl_url" : "http://ssd.jpl.nasa.gov/sbdb.cgi?sstr=3563339",
      "absolute_magnitude_h" : 20.8,
      "estimated_diameter" : {
        "kilometers" : {
          "estimated_diameter_min" : 0.1838886721,
          "estimated_diameter_max" : 0.411187571
        },
        "meters" : {
          "estimated_diameter_min" : 183.8886720703,
          "estimated_diameter_max" : 411.1875710413
        },
        "miles" : {
          "estimated_diameter_min" : 0.1142630881,
          "estimated_diameter_max" : 0.2555000322
        },
        "feet" : {
          "estimated_diameter_min" : 603.309310875,
          "estimated_diameter_max" : 1349.040630575
        }
      },
      "is_potentially_hazardous_asteroid" : false,
      "close_approach_data" : [ {
        "close_approach_date" : "2011-04-22",
        "epoch_date_close_approach" : 1303455600000,
        "relative_velocity" : {
          "kilometers_per_second" : "12.3463871938",
          "kilometers_per_hour" : "44446.9938977657",
          "miles_per_hour" : "27617.6335138645"
        },
        "miss_distance" : {
          "astronomical" : "0.2272330415",
          "lunar" : "88.3936538696",
          "kilometers" : "33993580",
          "miles" : "21122630"
        },
        "orbiting_body" : "Earth"
      } ],
      "orbital_data" : {
        "orbit_id" : "15",
        "orbit_determination_date" : "2017-04-06 08:53:43",
        "orbit_uncertainty" : "5",
        "minimum_orbit_intersection" : ".184991",
        "jupiter_tisserand_invariant" : "2.756",
        "epoch_osculation" : "2458000.5",
        "eccentricity" : ".6337425864287037",
        "semi_major_axis" : "3.241183854069799",
        "inclination" : "19.58002931910046",
        "ascending_node_longitude" : "25.46048996250724",
        "orbital_period" : "2131.345847017988",
        "perihelion_distance" : "1.18710761530065",
        "perihelion_argument" : "183.4268714016121",
        "aphelion_distance" : "5.295260092838948",
        "perihelion_time" : "2457809.528066303359",
        "mean_anomaly" : "32.25656513089147",
        "mean_motion" : ".1689073598748339",
        "equinox" : "J2000"
      }
    } ]
  }
}